{
  "norad_id": 62447,
  "name": "STARLINK-32730",
  "history": [
    {
      "epoch": "2026-03-28T17:05:44.347776",
      "apogee_km": 475.6812554524731,
      "perigee_km": 474.6614831671204,
      "latitude_deg": -0.6190705528099736,
      "longitude_deg": 133.0826086399611,
      "semi_major_axis_km": 6853.308369309797,
      "eccentricity": 7.44e-05,
      "inclination_deg": 53.1579,
      "raan_deg": 246.7429,
      "arg_perigee_deg": 74.6016,
      "mean_anomaly_deg": 285.5067,
      "mean_motion_rev_day": 15.30214636
    }
  ]
}